METEOR-M2 3             
1 57166U 23091A   26172.52499583 -.00000006  00000+0  16221-4 0  9995
2 57166  98.6080 227.4146 0004589 144.4775 215.6710 14.24047159155136
